[
    {
        "Altitude(m)": 702671.4722215624,
        "Argument of Periapsis(deg)": 0.0011390121186627068,
        "Eccentricity": 0.0,
        "Inclination(deg)": 45.0,
        "Latitude(deg)": 12.301926159428639,
        "Longitude(deg)": 132.47710508686419,
        "Mean Anomaly(deg)": 17.516921664748057,
        "RAAN(deg)": 219.9989248058542,
        "Satellite Name": "Constellation 1 969",
        "Satellite Number": 969,
        "Semi-Major Axis(m)": 7083131.272910544,
        "Time(s)": 19
    },
    {
        "Altitude(m)": 702671.7011514877,
        "Argument of Periapsis(deg)": 0.0011989601249081123,
        "Eccentricity": 0.0,
        "Inclination(deg)": 45.0,
        "Latitude(deg)": 12.344104478563336,
        "Longitude(deg)": 132.51789996432782,
        "Mean Anomaly(deg)": 17.577622804998022,
        "RAAN(deg)": 219.99886821668858,
        "Satellite Name": "Constellation 1 969",
        "Satellite Number": 969,
        "Semi-Major Axis(m)": 7083131.272910544,
        "Time(s)": 20
    },
    {
        "Altitude(m)": 702671.9487879769,
        "Argument of Periapsis(deg)": 0.001258908131153518,
        "Eccentricity": 0.0,
        "Inclination(deg)": 45.0,
        "Latitude(deg)": 12.386275306593609,
        "Longitude(deg)": 132.55870924676947,
        "Mean Anomaly(deg)": 17.638323945247908,
        "RAAN(deg)": 219.99881162752303,
        "Satellite Name": "Constellation 1 969",
        "Satellite Number": 969,
        "Semi-Major Axis(m)": 7083131.272910544,
        "Time(s)": 21
    },
    {
        "Altitude(m)": 702672.2151117685,
        "Argument of Periapsis(deg)": 0.0013188561373989236,
        "Eccentricity": 0.0,
        "Inclination(deg)": 45.0,
        "Latitude(deg)": 12.428438614605353,
        "Longitude(deg)": 132.59953281873163,
        "Mean Anomaly(deg)": 17.699025085497794,
        "RAAN(deg)": 219.99875503835747,
        "Satellite Name": "Constellation 1 969",
        "Satellite Number": 969,
        "Semi-Major Axis(m)": 7083131.272910544,
        "Time(s)": 22
    },
    {
        "Altitude(m)": 702672.5001035271,
        "Argument of Periapsis(deg)": 0.0013788041436443293,
        "Eccentricity": 0.0,
        "Inclination(deg)": 45.0,
        "Latitude(deg)": 12.470594373655851,
        "Longitude(deg)": 132.64037106907554,
        "Mean Anomaly(deg)": 17.759726225747656,
        "RAAN(deg)": 219.9986984491919,
        "Satellite Name": "Constellation 1 969",
        "Satellite Number": 969,
        "Semi-Major Axis(m)": 7083131.272910544,
        "Time(s)": 23
    },
    {
        "Altitude(m)": 702672.8037438384,
        "Argument of Periapsis(deg)": 0.001438752149889735,
        "Eccentricity": 0.0,
        "Inclination(deg)": 45.0,
        "Latitude(deg)": 12.51274255477483,
        "Longitude(deg)": 132.68122388239888,
        "Mean Anomaly(deg)": 17.820427365997592,
        "RAAN(deg)": 219.99864186002634,
        "Satellite Name": "Constellation 1 969",
        "Satellite Number": 969,
        "Semi-Major Axis(m)": 7083131.272910544,
        "Time(s)": 24
    },
    {
        "Altitude(m)": 702673.1260132105,
        "Argument of Periapsis(deg)": 0.0014987001561351404,
        "Eccentricity": 0.0,
        "Inclination(deg)": 45.0,
        "Latitude(deg)": 12.554883128963526,
        "Longitude(deg)": 132.72209131142424,
        "Mean Anomaly(deg)": 17.881128506247478,
        "RAAN(deg)": 219.9985852708608,
        "Satellite Name": "Constellation 1 969",
        "Satellite Number": 969,
        "Semi-Major Axis(m)": 7083131.272910544,
        "Time(s)": 25
    },
    {
        "Altitude(m)": 702673.4668920711,
        "Argument of Periapsis(deg)": 0.001558648162380546,
        "Eccentricity": 0.0,
        "Inclination(deg)": 45.0,
        "Latitude(deg)": 12.597016067194842,
        "Longitude(deg)": 132.76297340890181,
        "Mean Anomaly(deg)": 17.941829646497393,
        "RAAN(deg)": 219.99852868169518,
        "Satellite Name": "Constellation 1 969",
        "Satellite Number": 969,
        "Semi-Major Axis(m)": 7083131.272910544,
        "Time(s)": 26
    },
    {
        "Altitude(m)": 702673.8263607693,
        "Argument of Periapsis(deg)": 0.0016185961686259519,
        "Eccentricity": 0.0,
        "Inclination(deg)": 45.0,
        "Latitude(deg)": 12.639141340413124,
        "Longitude(deg)": 132.80387022760974,
        "Mean Anomaly(deg)": 18.002530786747226,
        "RAAN(deg)": 219.99847209252962,
        "Satellite Name": "Constellation 1 969",
        "Satellite Number": 969,
        "Semi-Major Axis(m)": 7083131.272910544,
        "Time(s)": 27
    },
    {
        "Altitude(m)": 702674.2043995814,
        "Argument of Periapsis(deg)": 0.0016785441748713573,
        "Eccentricity": 0.0,
        "Inclination(deg)": 45.0,
        "Latitude(deg)": 12.68125891953434,
        "Longitude(deg)": 132.84478182035411,
        "Mean Anomaly(deg)": 18.06323192699719,
        "RAAN(deg)": 219.99841550336404,
        "Satellite Name": "Constellation 1 969",
        "Satellite Number": 969,
        "Semi-Major Axis(m)": 7083131.272910544,
        "Time(s)": 28
    },
    {
        "Altitude(m)": 702674.6009886998,
        "Argument of Periapsis(deg)": 0.001738492181116763,
        "Eccentricity": 0.0,
        "Inclination(deg)": 45.0,
        "Latitude(deg)": 12.72336877544559,
        "Longitude(deg)": 132.88570823996884,
        "Mean Anomaly(deg)": 18.123933067247076,
        "RAAN(deg)": 219.9983589141985,
        "Satellite Name": "Constellation 1 969",
        "Satellite Number": 969,
        "Semi-Major Axis(m)": 7083131.272910544,
        "Time(s)": 29
    },
    {
        "Altitude(m)": 702675.0161082427,
        "Argument of Periapsis(deg)": 0.0017984401873621684,
        "Eccentricity": 0.0,
        "Inclination(deg)": 45.0,
        "Latitude(deg)": 12.765470879005443,
        "Longitude(deg)": 132.92664937121884,
        "Mean Anomaly(deg)": 18.184634207496963,
        "RAAN(deg)": 219.99830232503294,
        "Satellite Name": "Constellation 1 969",
        "Satellite Number": 969,
        "Semi-Major Axis(m)": 7083131.272910544,
        "Time(s)": 30
    },
    {
        "Altitude(m)": 702675.4497382484,
        "Argument of Periapsis(deg)": 0.0018583881936075745,
        "Eccentricity": 0.0,
        "Inclination(deg)": 45.0,
        "Latitude(deg)": 12.80756520104301,
        "Longitude(deg)": 132.96760560318833,
        "Mean Anomaly(deg)": 18.245335347746874,
        "RAAN(deg)": 219.99824573586733,
        "Satellite Name": "Constellation 1 969",
        "Satellite Number": 969,
        "Semi-Major Axis(m)": 7083131.272910544,
        "Time(s)": 31
    },
    {
        "Altitude(m)": 702675.9018586811,
        "Argument of Periapsis(deg)": 0.0019183361998529795,
        "Eccentricity": 0.0,
        "Inclination(deg)": 45.0,
        "Latitude(deg)": 12.849651712359005,
        "Longitude(deg)": 133.0085768206984,
        "Mean Anomaly(deg)": 18.30603648799676,
        "RAAN(deg)": 219.99818914670178,
        "Satellite Name": "Constellation 1 969",
        "Satellite Number": 969,
        "Semi-Major Axis(m)": 7083131.272910544,
        "Time(s)": 32
    },
    {
        "Altitude(m)": 702676.3724494213,
        "Argument of Periapsis(deg)": 0.0019782842060983856,
        "Eccentricity": 0.0,
        "Inclination(deg)": 45.0,
        "Latitude(deg)": 12.891730383724788,
        "Longitude(deg)": 133.04956307669548,
        "Mean Anomaly(deg)": 18.366737628246646,
        "RAAN(deg)": 219.99813255753622,
        "Satellite Name": "Constellation 1 969",
        "Satellite Number": 969,
        "Semi-Major Axis(m)": 7083131.272910544,
        "Time(s)": 33
    },
    {
        "Altitude(m)": 702676.8614902822,
        "Argument of Periapsis(deg)": 0.0020382322123437906,
        "Eccentricity": 0.0,
        "Inclination(deg)": 45.0,
        "Latitude(deg)": 12.933801185882576,
        "Longitude(deg)": 133.0905644241542,
        "Mean Anomaly(deg)": 18.427438768496557,
        "RAAN(deg)": 219.99807596837064,
        "Satellite Name": "Constellation 1 969",
        "Satellite Number": 969,
        "Semi-Major Axis(m)": 7083131.272910544,
        "Time(s)": 34
    },
    {
        "Altitude(m)": 702677.3689609913,
        "Argument of Periapsis(deg)": 0.002098180218589197,
        "Eccentricity": 0.0,
        "Inclination(deg)": 45.0,
        "Latitude(deg)": 12.975864089545167,
        "Longitude(deg)": 133.13158091607735,
        "Mean Anomaly(deg)": 18.488139908746497,
        "RAAN(deg)": 219.9980193792051,
        "Satellite Name": "Constellation 1 969",
        "Satellite Number": 969,
        "Semi-Major Axis(m)": 7083131.272910544,
        "Time(s)": 35
    },
    {
        "Altitude(m)": 702677.8948411933,
        "Argument of Periapsis(deg)": 0.002158128224834602,
        "Eccentricity": 0.0,
        "Inclination(deg)": 45.0,
        "Latitude(deg)": 13.01791906539604,
        "Longitude(deg)": 133.1726126054962,
        "Mean Anomaly(deg)": 18.548841048996355,
        "RAAN(deg)": 219.99796279003948,
        "Satellite Name": "Constellation 1 969",
        "Satellite Number": 969,
        "Semi-Major Axis(m)": 7083131.272910544,
        "Time(s)": 36
    },
    {
        "Altitude(m)": 702678.439110478,
        "Argument of Periapsis(deg)": 0.002218076231080008,
        "Eccentricity": 0.0,
        "Inclination(deg)": 45.0,
        "Latitude(deg)": 13.059966084089288,
        "Longitude(deg)": 133.2136593773734,
        "Mean Anomaly(deg)": 18.609542189246245,
        "RAAN(deg)": 219.99790620087393,
        "Satellite Name": "Constellation 1 969",
        "Satellite Number": 969,
        "Semi-Major Axis(m)": 7083131.272910544,
        "Time(s)": 37
    }
]